{"type": "Feature", "geometry": {"type": "Point", "coordinates": ["-98.21", "21.12"]}, "properties": {"temperature": "20", "pressure": "1,023", "localTime": "Wed Dec 06 2023 15:57:01 GMT-0500 (hora est\u00e1ndar de Colombia)", "julianTime": "1701896221", "utcTime": "3:57:10 PM", "altitude": "487.33", "elevation": "-38.3", "TLE": {"Norad_Id": 56205, "International_Classification": "Unclassified", "International_Designation": "23054AD", "Epoch_Time_(ISO)": "2023-12-06T13:06:11Z", "First_Derivative_Mean_Motion": 0.00018224, "Second_Derivative_Mean_Motion": 0.0, "Inclination": 97.3871, "Right_Ascension_of_the_Ascending_Node": 233.8331, "Eccentricity": 0.0015172, "Argument_of_Perigee": 115.864, "Mean_Anomaly": 244.41660000000002, "Mean_Motion": 15.286640060000002, "Revolution_Number_at_Epoch": 3647}}}