FACSAT-2                
1 56205U 23054AD  23340.54596575  .00018224  00000+0  65340-3 0  9997
2 56205  97.3871 233.8331 0015172 115.8640 244.4166 15.28664006 36474
